     2.11           G: GLONASS NAV DATA                     RINEX VERSION / TYPE
teqc  2016Apr1      IGN                 20230612 13:30:03UTCPGM / RUN BY / DATE
    18                                                      LEAP SECONDS
Linux 2.4.21-27.ELsmp|Opteron|gcc|Linux x86_64|=+           COMMENT
teqc  2016Apr1      IGN                 20230612 13:30:03UTCCOMMENT
  2023     6    12   -2.793967723846D-09                    CORR TO SYSTEM TIME
                                                            END OF HEADER
24 23  6 12 12 45  0.0-1.142360270023D-05-1.818989403546D-12 4.500000000000D+04
    9.957658691406D+03 4.814720153809D-01-9.313225746155D-10 0.000000000000D+00
    1.967940527344D+04 1.692853927612D+00 9.313225746155D-10 2.000000000000D+00
    1.281172607422D+04-2.977915763855D+00-9.313225746155D-10 0.000000000000D+00
18 23  6 12 12 45  0.0 8.621159940958D-05 9.094947017729D-13 4.500000000000D+04
    6.398988281250D+03 3.938865661621D-01 9.313225746155D-10 0.000000000000D+00
   -1.449195800781D+04 2.714199066162D+00-2.793967723846D-09-3.000000000000D+00
    1.998270800781D+04 1.847379684448D+00-1.862645149231D-09 0.000000000000D+00
 9 23  6 12 12 45  0.0 1.254156231880D-04 2.728484105319D-12 4.620000000000D+04
   -8.944341308594D+03 2.277196884155D+00 1.862645149231D-09 0.000000000000D+00
   -7.108883300781D+03-2.128868103027D+00-9.313225746155D-10-2.000000000000D+00
    2.282984619141D+04 2.218885421753D-01-2.793967723846D-09 0.000000000000D+00
19 23  6 12 12 45  0.0-2.360129728913D-04-9.094947017729D-13 4.500000000000D+04
   -1.906816406250D+02-5.661201477051D-02 1.862645149231D-09 0.000000000000D+00
   -2.415772363281D+04 1.147623062134D+00-3.725290298462D-09 3.000000000000D+00
    8.186644042969D+03 3.381566047668D+00-0.000000000000D+00 0.000000000000D+00
 8 23  6 12 12 45  0.0-7.120613008738D-05 0.000000000000D+00 4.500000000000D+04
   -1.394609375000D+04-2.695383071899D+00 9.313225746155D-10 0.000000000000D+00
    5.620138671875D+03-8.143157958984D-01 9.313225746155D-10 6.000000000000D+00
    2.065864746094D+04-1.605239868164D+00-2.793967723846D-09 0.000000000000D+00
23 23  6 12 12 45  0.0-8.580554276705D-05-9.094947017729D-13 4.500000000000D+04
    2.846248046875D+03 1.436138153076D-01-1.862645149231D-09 0.000000000000D+00
    2.505958300781D+04-5.601711273193D-01 2.793967723846D-09 3.000000000000D+00
   -3.843821289062D+03-3.558528900146D+00 0.000000000000D+00 0.000000000000D+00
13 23  6 12 12 45  0.0-3.602355718613D-05-0.000000000000D+00 4.500000000000D+04
    7.017234863281D+03-2.309356689453D+00-1.862645149231D-09 0.000000000000D+00
    8.549840332031D+03 2.134880065918D+00 9.313225746155D-10-2.000000000000D+00
   -2.299522119141D+04 8.892726898193D-02 1.862645149231D-09 0.000000000000D+00
14 23  6 12 12 45  0.0 2.476945519447D-05-0.000000000000D+00 4.500000000000D+04
    1.899305468750D+04-1.625218391418D+00-9.313225746155D-10 0.000000000000D+00
   -7.217928222656D+03 1.350304603577D+00-9.313225746155D-10-7.000000000000D+00
   -1.539205859375D+04-2.637955665588D+00 2.793967723846D-09 0.000000000000D+00
12 23  6 12 12 45  0.0 2.807565033436D-05 0.000000000000D+00 4.500000000000D+04
   -7.193639648438D+03-1.673278808594D+00-1.862645149231D-09 0.000000000000D+00
    1.750104394531D+04 1.644314765930D+00 2.793967723846D-09-1.000000000000D+00
   -1.707187939453D+04 2.387716293335D+00 9.313225746155D-10 0.000000000000D+00
22 23  6 12 12 45  0.0 8.043367415667D-05 2.728484105319D-12 4.500000000000D+04
   -6.817269042969D+03-3.112344741821D-01-9.313225746155D-10 0.000000000000D+00
    1.524787792969D+04-2.626004219055D+00 2.793967723846D-09-3.000000000000D+00
   -1.926331347656D+04-1.964999198914D+00 9.313225746155D-10 0.000000000000D+00
 4 23  6 12 12 45  0.0 1.909164711833D-04 9.094947017729D-13 4.638000000000D+04
    1.417102246094D+04 2.697073936462D+00-9.313225746155D-10 0.000000000000D+00
   -5.264663085938D+03 8.226919174194D-01-9.313225746155D-10 6.000000000000D+00
   -2.051639697266D+04 1.648311614990D+00 2.793967723846D-09 0.000000000000D+00
20 23  6 12 12 45  0.0-9.458046406507D-05-9.094947017729D-13 4.500000000000D+04
   -8.819904785156D+03-4.771680831909D-01 9.313225746155D-10 0.000000000000D+00
   -2.045568847656D+04-1.646842956543D+00-1.862645149231D-09 2.000000000000D+00
   -1.238974414062D+04 3.061981201172D+00 9.313225746155D-10 0.000000000000D+00
 5 23  6 12 12 45  0.0 1.140553504229D-04 0.000000000000D+00 4.623000000000D+04
   -3.223143066406D+03 2.869754791260D+00-0.000000000000D+00 0.000000000000D+00
   -1.203275585938D+04 1.038275718689D+00-0.000000000000D+00 1.000000000000D+00
   -2.224115283203D+04-9.787473678589D-01 2.793967723846D-09 0.000000000000D+00
 7 23  6 12 12 45  0.0 5.789101123810D-05 0.000000000000D+00 4.500000000000D+04
   -2.374514404297D+04-1.156048774719D+00 9.313225746155D-10 0.000000000000D+00
   -3.652562011719D+03-2.163295745850D-01 9.313225746155D-10 5.000000000000D+00
    8.548277832031D+03-3.324364662170D+00-1.862645149231D-09 0.000000000000D+00
10 23  6 12 12 45  0.0-9.408593177795D-05-0.000000000000D+00 4.500000000000D+04
   -1.822633642578D+04 1.765042304993D+00 0.000000000000D+00 0.000000000000D+00
    5.789588378906D+03-1.491424560547D+00 9.313225746155D-10-7.000000000000D+00
    1.683664599609D+04 2.429574966431D+00-2.793967723846D-09 0.000000000000D+00
 6 23  6 12 12 45  0.0-1.143496483564D-04-1.818989403546D-12 4.500000000000D+04
   -2.144314941406D+04 1.093219757080D+00 9.313225746155D-10 0.000000000000D+00
   -1.075541357422D+04 4.774131774902D-01 0.000000000000D+00-4.000000000000D+00
   -8.654287109375D+03-3.305871963501D+00 0.000000000000D+00 0.000000000000D+00
11 23  6 12 12 45  0.0-7.779523730278D-05-9.094947017729D-12 4.500000000000D+04
   -1.892499121094D+04 1.490373611450D-01-0.000000000000D+00 0.000000000000D+00
    1.711426562500D+04 9.094333648682D-02 2.793967723846D-09 0.000000000000D+00
    3.669609375000D+02 3.570074081421D+00-9.313225746155D-10 0.000000000000D+00
